{
    "links": {
        "self": "http://www.neowsapp.com/rest/v1/neo/3730583?api_key=iIulBulltgU6a56xZRHN4H3l9WmuAYTsLGpBGhQ2"
    },
    "id": "3730583",
    "neo_reference_id": "3730583",
    "name": "(2015 TA238)",
    "designation": "2015 TA238",
    "nasa_jpl_url": "http://ssd.jpl.nasa.gov/sbdb.cgi?sstr=3730583",
    "absolute_magnitude_h": 26.2,
    "estimated_diameter": {
        "kilometers": {
            "estimated_diameter_min": 0.0152951935,
            "estimated_diameter_max": 0.0342010925
        },
        "meters": {
            "estimated_diameter_min": 15.2951935344,
            "estimated_diameter_max": 34.201092472
        },
        "miles": {
            "estimated_diameter_min": 0.0095039897,
            "estimated_diameter_max": 0.021251567
        },
        "feet": {
            "estimated_diameter_min": 50.1810827555,
            "estimated_diameter_max": 112.2083122258
        }
    },
    "is_potentially_hazardous_asteroid": false,
    "close_approach_data": [
        {
            "close_approach_date": "2015-10-13",
            "close_approach_date_full": "2015-Oct-13 05:28",
            "epoch_date_close_approach": 1444714080000,
            "relative_velocity": {
                "kilometers_per_second": "8.615551737",
                "kilometers_per_hour": "31015.9862530711",
                "miles_per_hour": "19272.1276804152"
            },
            "miss_distance": {
                "astronomical": "0.0148449607",
                "lunar": "5.7746897123",
                "kilometers": "2220774.500953709",
                "miles": "1379925.2869068242"
            },
            "orbiting_body": "Earth"
        },
        {
            "close_approach_date": "2056-11-19",
            "close_approach_date_full": "2056-Nov-19 22:36",
            "epoch_date_close_approach": 2741898960000,
            "relative_velocity": {
                "kilometers_per_second": "19.8759317692",
                "kilometers_per_hour": "71553.3543692208",
                "miles_per_hour": "44460.4717745861"
            },
            "miss_distance": {
                "astronomical": "0.4437819396",
                "lunar": "172.6311745044",
                "kilometers": "66388832.908628652",
                "miles": "41252107.8837613176"
            },
            "orbiting_body": "Earth"
        },
        {
            "close_approach_date": "2063-07-31",
            "close_approach_date_full": "2063-Jul-31 22:07",
            "epoch_date_close_approach": 2953145220000,
            "relative_velocity": {
                "kilometers_per_second": "19.06197215",
                "kilometers_per_hour": "68623.0997400468",
                "miles_per_hour": "42639.7255023641"
            },
            "miss_distance": {
                "astronomical": "0.4620012773",
                "lunar": "179.7184968697",
                "kilometers": "69114407.021359351",
                "miles": "42945701.1044510038"
            },
            "orbiting_body": "Earth"
        }
    ],
    "orbital_data": {
        "orbit_id": "4",
        "orbit_determination_date": "2017-04-06 08:31:15",
        "first_observation_date": "2015-10-15",
        "last_observation_date": "2015-10-19",
        "data_arc_in_days": 4,
        "observations_used": 37,
        "orbit_uncertainty": "7",
        "minimum_orbit_intersection": ".0154277",
        "jupiter_tisserand_invariant": "4.030",
        "epoch_osculation": "2459000.5",
        "eccentricity": ".4212258042197097",
        "semi_major_axis": "1.734230040072399",
        "inclination": "10.6422247993486",
        "ascending_node_longitude": "20.43045791581024",
        "orbital_period": "834.177523800699",
        "perihelion_distance": "1.003727596740923",
        "perihelion_argument": "344.9297392634361",
        "aphelion_distance": "2.464732483403874",
        "perihelion_time": "2458965.508557318740",
        "mean_anomaly": "15.10100548844704",
        "mean_motion": ".4315628145430719",
        "equinox": "J2000",
        "orbit_class": {
            "orbit_class_type": "APO",
            "orbit_class_description": "Near-Earth asteroid orbits which cross the Earth’s orbit similar to that of 1862 Apollo",
            "orbit_class_range": "a (semi-major axis) > 1.0 AU; q (perihelion) < 1.017 AU"
        }
    },
    "is_sentry_object": false
}